HORYU-4                 
1 41340U 16012D   20353.36858785  .00000629  00000-0  40564-4 0  9995
2 41340  31.0045 240.4323 0013906 175.4341 184.6423 15.01680941265544
E-ST@R-II               
1 41459U 16025D   20353.75279976  .00001878  00000-0  97087-4 0  9991
2 41459  98.1211 113.6089 0161939 311.5750  47.1695 15.07111501255192
AAUSAT 4                
1 41460U 16025E   20353.39444869  .00002917  00000-0  14313-3 0  9993
2 41460  98.1192 116.2638 0149642 299.2774  59.3562 15.09723849255381
BEESAT-4                
1 41619U 16040W   20353.10751751  .00002274  00000-0  94803-4 0  9995
2 41619  97.2964  48.1073 0009332 248.5079 111.5164 15.24663458237370
CANX-7                  
1 41788U 16059F   20353.50137934  .00008352  00000-0  10631-2 0  9995
2 41788  98.2572  86.4255 0025543  79.9843 280.2659 14.81602406227030
RAVAN                   
1 41849U 16067B   20353.28881100  .00000414  00000-0  39517-4 0  9995
2 41849  97.9500 106.4583 0008749   3.4381 356.6900 14.98792915224150
CELTEE 1                
1 41850U 16067C   20353.05642067  .00000756  00000-0  70451-4 0  9990
2 41850  97.9400 103.3791 0008507   7.3172 352.8172 14.97305064223973
OPTICUBE 04             
1 41851U 16067D   20353.28769874 -.00000331  00000-0 -23401-4 0  9996
2 41851  97.9396 103.1281 0009096   7.4578 352.6777 14.97011178223985
AEROCUBE 8D             
1 41852U 16067E   20353.30297051  .00000195  00000-0  22263-4 0  9994
2 41852  97.9391 102.9926 0009554   5.5737 354.5589 14.97046558223969
AEROCUBE 8C             
1 41853U 16067F   20353.27201715  .00000704  00000-0  66434-4 0  9997
2 41853  97.9399 102.8473 0010120  10.0997 350.0426 14.97019539223953
PROMETHEUS 2-1          
1 41854U 16067G   20353.19874884  .00001291  00000-0  11619-3 0  9998
2 41854  97.9408 103.2270 0010124   8.9970 351.1431 14.97412493223961
PROMETHEUS 2-3          
1 41855U 16067H   20353.19797493  .00001298  00000-0  11677-3 0  9990
2 41855  97.9409 103.2680 0010290   9.0523 351.0882 14.97424135223963
INS-1B                  
1 41954U 17008G   20353.13468163  .00002085  00000-0  85309-4 0  9998
2 41954  97.3331  54.0701 0009355  23.1050 337.0607 15.25398159213360
BGUSAT                  
1 41999U 17008BD  20353.17507222  .00003296  00000-0  12118-3 0  9993
2 41999  97.3471  59.3600 0008199  30.6529 329.5188 15.28569461213009
DIDO-2                  
1 42000U 17008BE  20353.14350930  .00001366  00000-0  57734-4 0  9996
2 42000  97.3338  54.4972 0009355  41.5242 318.6705 15.24874536212754
PEASSS                  
1 42015U 17008BV  20353.23962132  .00001781  00000-0  71663-4 0  9993
2 42015  97.3367  56.5878 0007269  44.9839 315.1987 15.26175305213374
AL-FARABI 1             
1 42016U 17008BW  20353.15214117  .00002525  00000-0  97461-4 0  9999
2 42016  97.3406  57.8755 0007016  44.7226 315.4578 15.27178723213552
NAYIF-1 (EO-88)         
1 42017U 17008BX  20352.92916728  .00002523  00000-0  97257-4 0  9992
2 42017  97.3401  57.6653 0007086  44.7861 315.3949 15.27223401213549
UCLSAT                  
1 42765U 17036A   20353.09870846  .00002006  00000-0  85257-4 0  9995
2 42765  97.2772  42.2017 0012777  97.7366 262.5323 15.24105062194540
LITUANICASAT-2          
1 42768U 17036D   20353.45152131  .00002948  00000-0  12046-3 0  9998
2 42768  97.2836  42.8550 0015897  87.4625 272.8433 15.25029002193873
AALTO-1                 
1 42775U 17036L   20353.08097372  .00001202  00000-0  55146-4 0  9991
2 42775  97.2744  39.4586 0015417  93.5990 266.7010 15.22206217193607
URSA MAIOR              
1 42776U 17036M   20353.44090284  .00001220  00000-0  55571-4 0  9999
2 42776  97.2757  40.1755 0015207  92.0724 268.2255 15.22428172193676
COMPASS 2               
1 42777U 17036N   20353.23787563  .00002356  00000-0  97924-4 0  9999
2 42777  97.2820  42.9747 0013685  89.6261 270.6545 15.24691368193798
DIAMOND RED             
1 42783U 17036U   20352.91831188  .00001548  00000-0  67997-4 0  9992
2 42783  97.2772  41.0953 0013521 100.9176 259.3583 15.23300108193672
PEGASUS                 
1 42784U 17036V   20353.09743596  .00001785  00000-0  76951-4 0  9991
2 42784  97.2777  41.8130 0013347  98.9978 261.2770 15.23747842193732
DIAMOND GREEN           
1 42785U 17036W   20353.37717549  .00001462  00000-0  64408-4 0  9998
2 42785  97.2775  41.5813 0013422 100.0789 260.1963 15.23299834193730
DIAMOND BLUE            
1 42786U 17036X   20353.04769283  .00001554  00000-0  68271-4 0  9999
2 42786  97.2773  41.2561 0013260 101.3028 258.9700 15.23299915193684
NUDTSAT                 
1 42787U 17036Y   20353.24661619  .00003083  00000-0  12488-3 0  9993
2 42787  97.2823  43.8141 0012935  94.4712 265.7999 15.25334917193706
SUCHAI                  
1 42788U 17036Z   20353.05074183  .00002204  00000-0  92579-4 0  9991
2 42788  97.2785  42.5386 0012891  97.3182 262.9522 15.24399254193845
SKCUBE                  
1 42789U 17036AA  20353.05224287  .00001959  00000-0  83100-4 0  9990
2 42789  97.2780  42.3307 0012764  97.5557 262.7132 15.24196121193752
VZLUSAT-1               
1 42790U 17036AB  20353.17235596  .00002430  00000-0  99123-4 0  9997
2 42790  97.2807  43.7315 0012219  94.6693 265.5941 15.25302056193848
ROBUSTA-1B              
1 42792U 17036AD  20353.37593769  .00001923  00000-0  81134-4 0  9999
2 42792  97.2783  42.9570 0012364  96.7720 263.4925 15.24405779193835
CICERO 6                
1 42793U 17036AE  20353.45091111  .00001228  00000-0  54157-4 0  9996
2 42793  97.2756  42.1753 0011751  99.2916 260.9650 15.23555846193876
D-SAT                   
1 42794U 17036AF  20353.01749009  .00000503  00000-0  48225-4 0  9999
2 42794  97.4764  16.4161 0127385 111.9143 249.5675 14.91398448190010
CORVUS BC2              
1 42846U 17042X   20353.18373119  .00000105  00000-0  15470-4 0  9991
2 42846  97.4967 228.1729 0010413  32.6378 327.5484 14.92194366186808
CORVUS BC1              
1 42847U 17042Y   20353.16690923  .00000123  00000-0  17214-4 0  9993
2 42847  97.4969 228.3603 0010040  31.9656 328.2171 14.92296898186805
MIRATA                  
1 43015U 17073C   20353.18557652  .00000990  00000-0  80971-4 0  9990
2 43015  97.7134 258.3767 0251808 168.6808 192.0218 14.80133495166391
MAKERSAT 0              
1 43016U 17073D   20353.27485134  .00000669  00000-0  56650-4 0  9996
2 43016  97.7170 258.5946 0255055 169.9450 190.7007 14.79563282166387
DELLINGR (RBLE)         
1 43021U 98067NJ  20353.44526346  .00033493  00000-0  18456-3 0  9996
2 43021  51.6326  55.1708 0002977  18.1747 341.9360 15.79353699175842
AEROCUBE 7B (OCSD B)    
1 43042U 17071F   20353.40081478  .00005613  00000-0  12337-3 0  9998
2 43042  51.6360 242.9271 0003690  15.2961 344.8137 15.45601690170808
AEROCUBE 7C (OCSD C)    
1 43043U 17071G   20353.08447517  .00006348  00000-0  13865-3 0  9996
2 43043  51.6361 244.5797 0003981  16.8869 343.2249 15.45535894170728
CHEFSAT                 
1 43044U 17071H   20352.92184012  .00016002  00000-0  26244-3 0  9990
2 43044  51.6349 222.8467 0002548  37.6572 322.4596 15.52605128171000
ASGARDIA 1              
1 43049U 17071N   20353.07778809  .00006133  00000-0  13450-3 0  9994
2 43049  51.6375 243.8817 0002253  47.3195 312.7981 15.45483121170736
ISARA                   
1 43050U 17071P   20353.37215695  .00010642  00000-0  18737-3 0  9991
2 43050  51.6329 224.9334 0001781  74.5596 285.5590 15.51020072171006
PROPCUBE 2 (FAUNA)      
1 43052U 17071R   20353.13218547  .00006705  00000-0  14317-3 0  9991
2 43052  51.6362 241.2577 0002123  47.9195 312.1973 15.46105563170763
CORVUS BC3              
1 43118U 18004H   20353.19895495  .00001248  00000-0  54802-4 0  9991
2 43118  97.4257  61.8036 0011572 122.6246 237.6109 15.23754304162973
MICROMAS-2A             
1 43131U 18004W   20353.16629994  .00002823  00000-0  11197-3 0  9991
2 43131  97.4317  64.2235 0010211 119.2500 240.9760 15.26170950163105
SPACEBEE-4              
1 43139U 18004AE  20353.15790014  .00004148  00000-0  15511-3 0  9996
2 43139  97.4364  65.8970 0009535 119.4227 240.7965 15.27856450163194
SPACEBEE-3              
1 43140U 18004AF  20353.24151029  .00005214  00000-0  18714-3 0  9998
2 43140  97.4387  66.9987 0009127 117.0274 243.1899 15.29089219163268
SPACEBEE-2              
1 43141U 18004AG  20353.44099587  .00005554  00000-0  19663-3 0  9992
2 43141  97.4401  67.5896 0009038 115.5004 244.7172 15.29512722163314
SPACEBEE-1              
1 43142U 18004AH  20353.22892546  .00006165  00000-0  21464-3 0  9996
2 43142  97.4408  67.7646 0008980 115.6598 244.5571 15.30011014163299
CICERO 7                
1 43143U 18004AJ  20353.16602453  .00003033  00000-0  12023-3 0  9998
2 43143  97.4293  64.3544 0008424 126.2727 233.9290 15.26140764163129
GOMX-4B                 
1 43196U 18015E   20353.08153064  .00001131  00000-0  48591-4 0  9995
2 43196  97.4613 120.5413 0018608 173.2167 186.9326 15.24635871159878
GOMX-4A                 
1 43197U 18015F   20353.46871941  .00001522  00000-0  63848-4 0  9995
2 43197  97.4610 121.0800 0018935 173.4039 255.6405 15.24910812159957
UBAKUSAT                
1 43467U 98067NQ  20353.51264639  .00521100  14995-3  53637-3 0  9990
2 43467  51.6260  42.4359 0007928  27.3505 332.7925 16.10014862149285
TEMPEST-D               
1 43547U 98067NV  20352.67627374  .00011134  00000-0  98664-4 0  9994
2 43547  51.6353 104.2290 0005006  11.7396 348.3717 15.69159416138208
RAINCUBE                
1 43548U 98067NW  20353.49474623  .00812558  40447-3  64243-3 0  9999
2 43548  51.6211  51.2538 0009088  25.4725 334.6737 16.13899255139427
HALOSAT                 
1 43549U 98067NX  20353.46453606  .00309621  51998-4  56109-3 0  9993
2 43549  51.6308  55.8147 0007036  23.0675 337.0650 16.00939287138921
EQUISAT                 
1 43552U 98067PA  20353.44192699  .00573580  18246-3  57724-3 0  9996
2 43552  51.6219  51.0425 0008624  28.0873 332.0605 16.10340308139356
